OBJECT B                
1 51825U 22019B   24106.85209785  .00016114  00000+0  74767-3 0  9998
2 51825  97.4326 179.0231 0016525  99.3695 260.9409 15.19998465117755
